API VERSION: 1.2
API SOURCE: NASA/JPL Horizons API

*******************************************************************************
 Revised: April 12, 2021                Venus                           299 / 2
 
 PHYSICAL DATA (updated 2020-Oct-19):
  Vol. Mean Radius (km) =  6051.84+-0.01 Density (g/cm^3)      =  5.204
  Mass x10^23 (kg)      =    48.685      Volume (x10^10 km^3)  = 92.843
  Sidereal rot. period  =   243.018484 d Sid. Rot. Rate (rad/s)= -0.00000029924
  Mean solar day        =   116.7490 d   Equ. gravity  m/s^2   =  8.870
  Mom. of Inertia       =     0.33       Core radius (km)      = ~3200
  Geometric Albedo      =     0.65       Potential Love # k2   = ~0.25
  GM (km^3/s^2)         = 324858.592     Equatorial Radius, Re = 6051.893 km
  GM 1-sigma (km^3/s^2) =    +-0.006     Mass ratio (Sun/Venus)= 408523.72
  Atmos. pressure (bar) =  90            Max. angular diam.    =   60.2"
  Mean Temperature (K)  = 735            Visual mag. V(1,0)    =   -4.40
  Obliquity to orbit    = 177.3 deg      Hill's sphere rad.,Rp =  167.1
  Sidereal orb. per., y =   0.61519726   Orbit speed, km/s     =   35.021
  Sidereal orb. per., d = 224.70079922   Escape speed, km/s    =   10.361
                                 Perihelion  Aphelion    Mean
  Solar Constant (W/m^2)         2759         2614       2650
  Maximum Planetary IR (W/m^2)    153         153         153
  Minimum Planetary IR (W/m^2)    153         153         153
*******************************************************************************


*******************************************************************************
Ephemeris / API_USER Thu Feb 19 13:06:03 2026 Pasadena, USA      / Horizons
*******************************************************************************
Target body name: Venus (299)                     {source: DE441}
Center body name: Sun (10)                        {source: DE441}
Center-site name: BODY CENTER
*******************************************************************************
Start time      : A.D. 2025-May-15 08:45:00.0000 TDB
Stop  time      : A.D. 2025-May-18 08:45:00.0000 TDB
Step-size       : 60 minutes
*******************************************************************************
Center geodetic : 0.0, 0.0, 0.0                   {E-lon(deg),Lat(deg),Alt(km)}
Center cylindric: 0.0, 0.0, 0.0                   {E-lon(deg),Dxy(km),Dz(km)}
Center radii    : 695700.0, 695700.0, 695700.0 km {Equator_a, b, pole_c}
Output units    : AU-D
Calendar mode   : Mixed Julian/Gregorian
Output type     : GEOMETRIC cartesian states
Output format   : 3 (position, velocity, LT, range, range-rate)
Reference frame : Ecliptic of J2000.0
*******************************************************************************
JDTDB
   X     Y     Z
   VX    VY    VZ
   LT    RG    RR
*******************************************************************************
$$SOE
2460811.864583333 = A.D. 2025-May-16 08:45:00.0000 TDB 
 X =-1.005396024358547E-02 Y =-7.268106616145938E-01 Z =-9.404982112905254E-03
 VX= 2.008866747294610E-02 VY=-3.550589121562907E-04 VZ=-1.164000657566218E-03
 LT= 4.198461294470704E-03 RG= 7.269410386281457E-01 RR= 9.221840636097978E-05
2460811.906250000 = A.D. 2025-May-16 09:45:00.0000 TDB 
 X =-9.216925898163402E-03 Y =-7.268249697382889E-01 Z =-9.453475840574779E-03
 VX= 2.008897662892152E-02 VY=-3.317310102888516E-04 VZ=-1.163698011958673E-03
 LT= 4.198483472460522E-03 RG= 7.269448786280465E-01 RR= 9.210156858643230E-05
2460811.947916667 = A.D. 2025-May-16 10:45:00.0000 TDB 
 X =-8.379879231038211E-03 Y =-7.268383058644220E-01 Z =-9.501956925687267E-03
 VX= 2.008925891477218E-02 VY=-3.084030343156666E-04 VZ=-1.163393814905558E-03
 LT= 4.198505622319094E-03 RG= 7.269487137571725E-01 RR= 9.198460921656949E-05
2460811.989583333 = A.D. 2025-May-16 11:45:00.0000 TDB 
 X =-7.542821361788591E-03 Y =-7.268506699905460E-01 Z =-9.550425303608610E-03
 VX= 2.008951433097669E-02 VY=-2.850750149702560E-04 VZ=-1.163088066856775E-03
 LT= 4.198527744017177E-03 RG= 7.269525440104611E-01 RR= 9.186752840928176E-05
2460812.031250000 = A.D. 2025-May-16 12:45:00.0000 TDB 
 X =-6.705753409972584E-03 Y =-7.268620621154941E-01 Z =-9.598880909723327E-03
 VX= 2.008974287804796E-02 VY=-2.617469829842356E-04 VZ=-1.162780768264180E-03
 LT= 4.198549837525565E-03 RG= 7.269563693828557E-01 RR= 9.175032632260415E-05
2460812.072916667 = A.D. 2025-May-16 13:45:00.0000 TDB 
 X =-5.868676495126087E-03 Y =-7.268724822393793E-01 Z =-9.647323679434957E-03
 VX= 2.008994455653319E-02 VY=-2.384189690872795E-04 VZ=-1.162471919581579E-03
 LT= 4.198571902815093E-03 RG= 7.269601898693057E-01 RR= 9.163300311471737E-05
2460812.114583333 = A.D. 2025-May-16 14:45:00.0000 TDB 
 X =-5.031591736761541E-03 Y =-7.268819303635958E-01 Z =-9.695753548165773E-03
 VX= 2.009011936701390E-02 VY=-2.150910040070835E-04 VZ=-1.162161521264734E-03
 LT= 4.198593939856633E-03 RG= 7.269640054647682E-01 RR= 9.151555894394445E-05
2460812.156250000 = A.D. 2025-May-16 15:45:00.0000 TDB 
 X =-4.194500254366452E-03 Y =-7.268904064908180E-01 Z =-9.744170451357368E-03
 VX= 2.009026731010588E-02 VY=-1.917631184693314E-04 VZ=-1.161849573771353E-03
 LT= 4.198615948621094E-03 RG= 7.269678161642066E-01 RR= 9.139799396875482E-05
2460812.197916667 = A.D. 2025-May-16 16:45:00.0000 TDB 
 X =-3.357403167401901E-03 Y =-7.268979106249998E-01 Z =-9.792574324470109E-03
 VX= 2.009038838645922E-02 VY=-1.684353431976534E-04 VZ=-1.161536077561097E-03
 LT= 4.198637929079423E-03 RG= 7.269716219625900E-01 RR= 9.128030834776077E-05
2460812.239583333 = A.D. 2025-May-16 17:45:00.0000 TDB 
 X =-2.520301595301163E-03 Y =-7.269044427713760E-01 Z =-9.840965102983889E-03
 VX= 2.009048259675829E-02 VY=-1.451077089135924E-04 VZ=-1.161221033095578E-03
 LT= 4.198659881202610E-03 RG= 7.269754228548955E-01 RR= 9.116250223971917E-05
2460812.281250000 = A.D. 2025-May-16 18:45:00.0000 TDB 
 X =-1.683196657468385E-03 Y =-7.269100029364608E-01 Z =-9.889342722397625E-03
 VX= 2.009054994172175E-02 VY=-1.217802463365694E-04 VZ=-1.160904440838353E-03
 LT= 4.198681804961674E-03 RG= 7.269792188361055E-01 RR= 9.104457580352985E-05
2460812.322916667 = A.D. 2025-May-16 19:45:00.0000 TDB 
 X =-8.460894732769304E-04 Y =-7.269145911280488E-01 Z =-9.937707118229762E-03
 VX= 2.009059042210250E-02 VY=-9.845298618384135E-05 VZ=-1.160586301254929E-03
 LT= 4.198703700327681E-03 RG= 7.269830099012100E-01 RR= 9.092652919823657E-05
2460812.364583333 = A.D. 2025-May-16 20:45:00.0000 TDB 
 X =-8.981162068132632E-06 Y =-7.269182073552142E-01 Z =-9.986058226018009E-03
 VX= 2.009060403868773E-02 VY=-7.512595917046885E-05 VZ=-1.160266614812759E-03
 LT= 4.198725567271731E-03 RG= 7.269867960452052E-01 RR= 9.080836258302564E-05
2460812.406250000 = A.D. 2025-May-16 21:45:00.0000 TDB 
 X = 8.281271568501827E-04 Y =-7.269208516283110E-01 Z =-1.003439598131991E-02
 VX= 2.009059079229891E-02 VY=-5.179919600928027E-05 VZ=-1.159945381981244E-03
 LT= 4.198747405764962E-03 RG= 7.269905772630940E-01 RR= 9.069007611722861E-05
2460812.447916667 = A.D. 2025-May-16 22:45:00.0000 TDB 
 X = 1.665234364205121E-03 Y =-7.269225239589727E-01 Z =-1.008272031971212E-02
 VX= 2.009055068379172E-02 VY=-2.847272741083070E-05 VZ=-1.159622603231729E-03
 LT= 4.198769215778554E-03 RG= 7.269943535498858E-01 RR= 9.057166996031601E-05
2460812.489583333 = A.D. 2025-May-16 23:45:00.0000 TDB 
 X = 2.502339340760188E-03 Y =-7.269232243601128E-01 Z =-1.013103117679132E-02
 VX= 2.009048371405611E-02 VY=-5.146584083369687E-06 VZ=-1.159298279037502E-03
 LT= 4.198790997283721E-03 RG= 7.269981249005971E-01 RR= 9.045314427190404E-05
2460812.531250000 = A.D. 2025-May-17 00:45:00.0000 TDB 
 X = 3.339440967316680E-03 Y =-7.269229528459238E-01 Z =-1.017932848817393E-02
 VX= 2.009038988401629E-02 VY= 1.817920326719717E-05 VZ=-1.158972409873797E-03
 LT= 4.198812750251718E-03 RG= 7.270018913102506E-01 RR= 9.033449921175098E-05
2460812.572916667 = A.D. 2025-May-17 01:45:00.0000 TDB 
 X = 4.176538124715073E-03 Y =-7.269217094318778E-01 Z =-1.022761218949616E-02
 VX= 2.009026919463070E-02 VY= 4.150460393734493E-05 VZ=-1.158644996217791E-03
 LT= 4.198834474653838E-03 RG= 7.270056527738759E-01 RR= 9.021573493975549E-05
2460812.614583333 = A.D. 2025-May-17 02:45:00.0000 TDB 
 X = 5.013629693836522E-03 Y =-7.269194941347260E-01 Z =-1.027588221641417E-02
 VX= 2.009012164689201E-02 VY= 6.482958722596410E-05 VZ=-1.158316038548601E-03
 LT= 4.198856170461412E-03 RG= 7.270094092865088E-01 RR= 9.009685161596044E-05
2460812.656250000 = A.D. 2025-May-17 03:45:00.0000 TDB 
 X = 5.850714555604299E-03 Y =-7.269163069724991E-01 Z =-1.032413850460398E-02
 VX= 2.008994724182711E-02 VY= 8.815412243440046E-05 VZ=-1.157985537347287E-03
 LT= 4.198877837645811E-03 RG= 7.270131608431928E-01 RR= 8.997784940054920E-05
2460812.697916667 = A.D. 2025-May-17 04:45:00.0000 TDB 
 X = 6.687791590985097E-03 Y =-7.269121479645061E-01 Z =-1.037238098976182E-02
 VX= 2.008974598049713E-02 VY= 1.114781788664878E-04 VZ=-1.157653493096850E-03
 LT= 4.198899476178442E-03 RG= 7.270169074389765E-01 RR= 8.985872845384674E-05
2460812.739583333 = A.D. 2025-May-17 05:45:00.0000 TDB 
 X = 7.524859680990562E-03 Y =-7.269070171313361E-01 Z =-1.042060960760417E-02
 VX= 2.008951786399740E-02 VY= 1.348017258285859E-04 VZ=-1.157319906282228E-03
 LT= 4.198921086030752E-03 RG= 7.270206490689168E-01 RR= 8.973948893631998E-05
2460812.781250000 = A.D. 2025-May-17 06:45:00.0000 TDB 
 X = 8.361917706678748E-03 Y =-7.269009144948561E-01 Z =-1.046882429386760E-02
 VX= 2.008926289345749E-02 VY= 1.581247326296193E-04 VZ=-1.156984777390301E-03
 LT= 4.198942667174228E-03 RG= 7.270243857280766E-01 RR= 8.962013100857665E-05
2460812.822916667 = A.D. 2025-May-17 07:45:00.0000 TDB 
 X = 9.198964549155395E-03 Y =-7.268938400782120E-01 Z =-1.051702498430911E-02
 VX= 2.008898107004113E-02 VY= 1.814471685811090E-04 VZ=-1.156648106909883E-03
 LT= 4.198964219580392E-03 RG= 7.270281174115251E-01 RR= 8.950065483136533E-05
